start=new Date('2021-11-12T00:00:00.000Z').valueOf();
sats=[{"TLE_LINE2":"2 46371  53.0534 245.8685 0001854  58.1865 301.9304 15.06407540 66578","PERIAPSIS":"545.906","MEAN_ELEMENT_THEORY":"SGP4","BSTAR":"0.00005400100000","COUNTRY_CODE":"US","GP_ID":"189493435","TLE_LINE1":"1 46371U 20062AY  21315.50388344  .00000523  00000-0  54001-4 0  9992","OBJECT_TYPE":"PAYLOAD","CLASSIFICATION_TYPE":"U","FILE":"3212088","MEAN_ANOMALY":"301.9304","NORAD_CAT_ID":"46371","EPHEMERIS_TYPE":"0","OBJECT_ID":"2020-062AY","LAUNCH_DATE":"2020-09-03","CENTER_NAME":"EARTH","MEAN_MOTION_DOT":"0.00000523","SITE":"AFETR","RA_OF_ASC_NODE":"245.8685","MEAN_MOTION":"15.06407540","REF_FRAME":"TEME","ARG_OF_PERICENTER":"58.1865","MEAN_MOTION_DDOT":"0.0000000000000","OBJECT_NAME":"STARLINK-1688","DECAY_DATE":null,"ECCENTRICITY":"0.00018540","PERIOD":"95.592","REV_AT_EPOCH":"6657","APOAPSIS":"548.474","ELEMENT_SET_NO":"999","SEMIMAJOR_AXIS":"6925.325","EPOCH":"2021-11-11T12:05:35.529216","RCS_SIZE":"LARGE","TIME_SYSTEM":"UTC","INCLINATION":"53.0534"},{"CENTER_NAME":"EARTH","MEAN_MOTION_DOT":"0.00000953","SITE":"AFETR","RA_OF_ASC_NODE":"264.0304","MEAN_MOTION_DDOT":"0.0000000000000","ARG_OF_PERICENTER":"68.8709","MEAN_MOTION":"15.06406704","REF_FRAME":"TEME","OBJECT_NAME":"STARLINK-1689","DECAY_DATE":null,"ECCENTRICITY":"0.00018740","PERIOD":"95.592","ELEMENT_SET_NO":"999","SEMIMAJOR_AXIS":"6925.328","REV_AT_EPOCH":"6635","APOAPSIS":"548.491","RCS_SIZE":"LARGE","EPOCH":"2021-11-11T21:52:05.558016","INCLINATION":"53.0540","TIME_SYSTEM":"UTC","PERIAPSIS":"545.895","TLE_LINE2":"2 46372  53.0540 264.0304 0001874  68.8709 291.2480 15.06406704 66357","BSTAR":"0.00008284900000","MEAN_ELEMENT_THEORY":"SGP4","COUNTRY_CODE":"US","TLE_LINE1":"1 46372U 20062AZ  21315.91117544  .00000953  00000-0  82849-4 0  9998","GP_ID":"189527225","OBJECT_TYPE":"PAYLOAD","CLASSIFICATION_TYPE":"U","NORAD_CAT_ID":"46372","MEAN_ANOMALY":"291.2480","FILE":"3212485","EPHEMERIS_TYPE":"0","OBJECT_ID":"2020-062AZ","LAUNCH_DATE":"2020-09-03"},{"CLASSIFICATION_TYPE":"U","NORAD_CAT_ID":"46374","MEAN_ANOMALY":"315.0104","FILE":"3212485","EPHEMERIS_TYPE":"0","OBJECT_ID":"2020-062BB","LAUNCH_DATE":"2020-09-03","PERIAPSIS":"543.071","TLE_LINE2":"2 46374  53.0532 193.9742 0005970  45.1369 315.0104 15.06402686 67339","MEAN_ELEMENT_THEORY":"SGP4","BSTAR":"-0.00008798200000","COUNTRY_CODE":"US","TLE_LINE1":"1 46374U 20062BB  21315.92501145 -.00001594  00000-0 -87982-4 0  9992","GP_ID":"189525973","OBJECT_TYPE":"PAYLOAD","PERIOD":"95.592","SEMIMAJOR_AXIS":"6925.340","ELEMENT_SET_NO":"999","REV_AT_EPOCH":"6733","APOAPSIS":"551.340","RCS_SIZE":"LARGE","EPOCH":"2021-11-11T22:12:00.989280","TIME_SYSTEM":"UTC","INCLINATION":"53.0532","CENTER_NAME":"EARTH","MEAN_MOTION_DOT":"-0.00001594","RA_OF_ASC_NODE":"193.9742","SITE":"AFETR","ARG_OF_PERICENTER":"45.1369","MEAN_MOTION_DDOT":"0.0000000000000","REF_FRAME":"TEME","MEAN_MOTION":"15.06402686","DECAY_DATE":null,"ECCENTRICITY":"0.00059700","OBJECT_NAME":"STARLINK-1711"},{"TLE_LINE1":"1 46375U 20062BC  21315.93928580  .00000021  00000-0  20316-4 0  9990","GP_ID":"189526223","OBJECT_TYPE":"PAYLOAD","PERIAPSIS":"546.070","TLE_LINE2":"2 46375  53.0524 218.9053 0001633  68.5451 291.5712 15.06404105 66988","MEAN_ELEMENT_THEORY":"SGP4","BSTAR":"0.00002031600000","COUNTRY_CODE":"US","LAUNCH_DATE":"2020-09-03","CLASSIFICATION_TYPE":"U","MEAN_ANOMALY":"291.5712","NORAD_CAT_ID":"46375","FILE":"3212485","EPHEMERIS_TYPE":"0","OBJECT_ID":"2020-062BC","RA_OF_ASC_NODE":"218.9053","SITE":"AFETR","ARG_OF_PERICENTER":"68.5451","MEAN_MOTION_DDOT":"0.0000000000000","MEAN_MOTION":"15.06404105","REF_FRAME":"TEME","ECCENTRICITY":"0.00016330","DECAY_DATE":null,"OBJECT_NAME":"STARLINK-1724","CENTER_NAME":"EARTH","MEAN_MOTION_DOT":"0.00000021","RCS_SIZE":"LARGE","EPOCH":"2021-11-11T22:32:34.293120","TIME_SYSTEM":"UTC","INCLINATION":"53.0524","PERIOD":"95.592","ELEMENT_SET_NO":"999","SEMIMAJOR_AXIS":"6925.336","APOAPSIS":"548.332","REV_AT_EPOCH":"6698"},{"RCS_SIZE":"LARGE","EPOCH":"2021-11-11T22:53:47.879232","INCLINATION":"53.0532","TIME_SYSTEM":"UTC","PERIOD":"95.592","SEMIMAJOR_AXIS":"6925.355","ELEMENT_SET_NO":"999","REV_AT_EPOCH":"6698","APOAPSIS":"548.162","SITE":"AFETR","RA_OF_ASC_NODE":"218.8446","ARG_OF_PERICENTER":"71.6538","MEAN_MOTION_DDOT":"0.0000000000000","REF_FRAME":"TEME","MEAN_MOTION":"15.06397777","ECCENTRICITY":"0.00013590","DECAY_DATE":null,"OBJECT_NAME":"STARLINK-1742","CENTER_NAME":"EARTH","MEAN_MOTION_DOT":"-0.00001793","LAUNCH_DATE":"2020-09-03","CLASSIFICATION_TYPE":"U","NORAD_CAT_ID":"46376","MEAN_ANOMALY":"288.4599","FILE":"3212485","EPHEMERIS_TYPE":"0","OBJECT_ID":"2020-062BD","TLE_LINE1":"1 46376U 20062BD  21315.95402638 -.00001793  00000-0 -10150-3 0  9997","GP_ID":"189527472","OBJECT_TYPE":"PAYLOAD","PERIAPSIS":"546.279","TLE_LINE2":"2 46376  53.0532 218.8446 0001359  71.6538 288.4599 15.06397777 66983","MEAN_ELEMENT_THEORY":"SGP4","BSTAR":"-0.00010150000000","COUNTRY_CODE":"US"},{"CENTER_NAME":"EARTH","MEAN_MOTION_DOT":"0.00215720","ECCENTRICITY":"0.00018060","DECAY_DATE":null,"OBJECT_NAME":"STARLINK-1751","RA_OF_ASC_NODE":"219.9725","SITE":"AFETR","REF_FRAME":"TEME","MEAN_MOTION":"15.08121471","ARG_OF_PERICENTER":"34.4478","MEAN_MOTION_DDOT":"0.0000000000000","REV_AT_EPOCH":"6694","APOAPSIS":"543.192","SEMIMAJOR_AXIS":"6920.078","ELEMENT_SET_NO":"999","PERIOD":"95.483","INCLINATION":"53.0524","TIME_SYSTEM":"UTC","EPOCH":"2021-11-11T16:44:42.903456","RCS_SIZE":"LARGE","COUNTRY_CODE":"US","TLE_LINE2":"2 46378  53.0524 219.9725 0001806  34.4478 325.6629 15.08121471 66947","PERIAPSIS":"540.693","MEAN_ELEMENT_THEORY":"SGP4","BSTAR":"0.01342400000000","OBJECT_TYPE":"PAYLOAD","GP_ID":"189527723","TLE_LINE1":"1 46378U 20062BF  21315.69771879  .00215720  00000-0  13424-1 0  9996","EPHEMERIS_TYPE":"0","OBJECT_ID":"2020-062BF","CLASSIFICATION_TYPE":"U","FILE":"3212485","MEAN_ANOMALY":"325.6629","NORAD_CAT_ID":"46378","LAUNCH_DATE":"2020-09-03"},{"PERIOD":"95.592","APOAPSIS":"548.339","REV_AT_EPOCH":"6663","SEMIMAJOR_AXIS":"6925.356","ELEMENT_SET_NO":"999","EPOCH":"2021-11-11T22:05:21.792768","RCS_SIZE":"LARGE","INCLINATION":"53.0534","TIME_SYSTEM":"UTC","MEAN_MOTION_DOT":"0.00000302","CENTER_NAME":"EARTH","REF_FRAME":"TEME","MEAN_MOTION":"15.06397497","MEAN_MOTION_DDOT":"0.0000000000000","ARG_OF_PERICENTER":"69.2578","RA_OF_ASC_NODE":"243.9832","SITE":"AFETR","ECCENTRICITY":"0.00016140","DECAY_DATE":null,"OBJECT_NAME":"STARLINK-1758","FILE":"3212485","MEAN_ANOMALY":"290.8584","NORAD_CAT_ID":"46380","CLASSIFICATION_TYPE":"U","OBJECT_ID":"2020-062BH","EPHEMERIS_TYPE":"0","LAUNCH_DATE":"2020-09-03","BSTAR":"0.00003914800000","MEAN_ELEMENT_THEORY":"SGP4","TLE_LINE2":"2 46380  53.0534 243.9832 0001614  69.2578 290.8584 15.06397497 66631","PERIAPSIS":"546.103","COUNTRY_CODE":"US","GP_ID":"189526471","TLE_LINE1":"1 46380U 20062BH  21315.92039112  .00000302  00000-0  39148-4 0  9994","OBJECT_TYPE":"PAYLOAD"},{"CENTER_NAME":"EARTH","MEAN_MOTION_DOT":"-0.00000257","RA_OF_ASC_NODE":"219.0815","SITE":"AFETR","MEAN_MOTION_DDOT":"0.0000000000000","ARG_OF_PERICENTER":"66.8965","REF_FRAME":"TEME","MEAN_MOTION":"15.06401454","DECAY_DATE":null,"ECCENTRICITY":"0.00015240","OBJECT_NAME":"STARLINK-1769","PERIOD":"95.592","SEMIMAJOR_AXIS":"6925.344","ELEMENT_SET_NO":"999","APOAPSIS":"548.265","REV_AT_EPOCH":"6698","RCS_SIZE":"LARGE","EPOCH":"2021-11-11T21:39:28.700928","TIME_SYSTEM":"UTC","INCLINATION":"53.0536","PERIAPSIS":"546.154","TLE_LINE2":"2 46382  53.0536 219.0815 0001524  66.8965 293.2184 15.06401454 66983","MEAN_ELEMENT_THEORY":"SGP4","BSTAR":"0.00000162990000","COUNTRY_CODE":"US","TLE_LINE1":"1 46382U 20062BK  21315.90241552 -.00000257  00000-0  16299-5 0  9990","GP_ID":"189526721","OBJECT_TYPE":"PAYLOAD","CLASSIFICATION_TYPE":"U","NORAD_CAT_ID":"46382","MEAN_ANOMALY":"293.2184","FILE":"3212485","EPHEMERIS_TYPE":"0","OBJECT_ID":"2020-062BK","LAUNCH_DATE":"2020-09-03"},{"CENTER_NAME":"EARTH","MEAN_MOTION_DOT":"0.00000557","SITE":"AFETR","RA_OF_ASC_NODE":"265.6229","MEAN_MOTION_DDOT":"0.0000000000000","ARG_OF_PERICENTER":"63.9061","MEAN_MOTION":"15.06398052","REF_FRAME":"TEME","DECAY_DATE":null,"ECCENTRICITY":"0.00016430","OBJECT_NAME":"STARLINK-1770","PERIOD":"95.592","ELEMENT_SET_NO":"999","SEMIMAJOR_AXIS":"6925.355","REV_AT_EPOCH":"6629","APOAPSIS":"548.357","RCS_SIZE":"LARGE","EPOCH":"2021-11-11T13:22:32.943936","TIME_SYSTEM":"UTC","INCLINATION":"53.0549","PERIAPSIS":"546.082","TLE_LINE2":"2 46383  53.0549 265.6229 0001643  63.9061 296.2097 15.06398052 66290","MEAN_ELEMENT_THEORY":"SGP4","BSTAR":"0.00005627900000","COUNTRY_CODE":"US","TLE_LINE1":"1 46383U 20062BL  21315.55732574  .00000557  00000-0  56279-4 0  9994","GP_ID":"189493436","OBJECT_TYPE":"PAYLOAD","CLASSIFICATION_TYPE":"U","NORAD_CAT_ID":"46383","MEAN_ANOMALY":"296.2097","FILE":"3212088","EPHEMERIS_TYPE":"0","OBJECT_ID":"2020-062BL","LAUNCH_DATE":"2020-09-03"},{"LAUNCH_DATE":"2020-09-03","CLASSIFICATION_TYPE":"U","NORAD_CAT_ID":"46384","MEAN_ANOMALY":"297.0219","FILE":"3212088","EPHEMERIS_TYPE":"0","OBJECT_ID":"2020-062BM","TLE_LINE1":"1 46384U 20062BM  21315.56101559 -.00003139  00000-0 -19189-3 0  9998","GP_ID":"189494188","OBJECT_TYPE":"PAYLOAD","PERIAPSIS":"546.075","TLE_LINE2":"2 46384  53.0528 265.5916 0001634  63.0937 297.0219 15.06402407 66298","MEAN_ELEMENT_THEORY":"SGP4","BSTAR":"-0.00019189000000","COUNTRY_CODE":"US","RCS_SIZE":"LARGE","EPOCH":"2021-11-11T13:27:51.746976","INCLINATION":"53.0528","TIME_SYSTEM":"UTC","PERIOD":"95.592","ELEMENT_SET_NO":"999","SEMIMAJOR_AXIS":"6925.341","APOAPSIS":"548.338","REV_AT_EPOCH":"6629","RA_OF_ASC_NODE":"265.5916","SITE":"AFETR","MEAN_MOTION_DDOT":"0.0000000000000","ARG_OF_PERICENTER":"63.0937","MEAN_MOTION":"15.06402407","REF_FRAME":"TEME","OBJECT_NAME":"STARLINK-1771","DECAY_DATE":null,"ECCENTRICITY":"0.00016340","CENTER_NAME":"EARTH","MEAN_MOTION_DOT":"-0.00003139"}];
